{
    "links": {
        "self": "http://www.neowsapp.com/rest/v1/neo/3702719?api_key=iIulBulltgU6a56xZRHN4H3l9WmuAYTsLGpBGhQ2"
    },
    "id": "3702719",
    "neo_reference_id": "3702719",
    "name": "(2014 YD1)",
    "designation": "2014 YD1",
    "nasa_jpl_url": "http://ssd.jpl.nasa.gov/sbdb.cgi?sstr=3702719",
    "absolute_magnitude_h": 25.6,
    "estimated_diameter": {
        "kilometers": {
            "estimated_diameter_min": 0.0201629919,
            "estimated_diameter_max": 0.0450858206
        },
        "meters": {
            "estimated_diameter_min": 20.1629919443,
            "estimated_diameter_max": 45.0858206172
        },
        "miles": {
            "estimated_diameter_min": 0.0125286985,
            "estimated_diameter_max": 0.0280150214
        },
        "feet": {
            "estimated_diameter_min": 66.1515504905,
            "estimated_diameter_max": 147.9193637137
        }
    },
    "is_potentially_hazardous_asteroid": false,
    "close_approach_data": [
        {
            "close_approach_date": "2007-08-28",
            "close_approach_date_full": "2007-Aug-28 13:01",
            "epoch_date_close_approach": 1188306060000,
            "relative_velocity": {
                "kilometers_per_second": "22.3550641025",
                "kilometers_per_hour": "80478.2307688243",
                "miles_per_hour": "50006.0428907731"
            },
            "miss_distance": {
                "astronomical": "0.4792494054",
                "lunar": "186.4280187006",
                "kilometers": "71694690.246606498",
                "miles": "44549014.7539777524"
            },
            "orbiting_body": "Earth"
        },
        {
            "close_approach_date": "2014-12-11",
            "close_approach_date_full": "2014-Dec-11 18:51",
            "epoch_date_close_approach": 1418323860000,
            "relative_velocity": {
                "kilometers_per_second": "8.9029578568",
                "kilometers_per_hour": "32050.6482843605",
                "miles_per_hour": "19915.0264298017"
            },
            "miss_distance": {
                "astronomical": "0.0238854849",
                "lunar": "9.2914536261",
                "kilometers": "3573217.664957163",
                "miles": "2220294.5005803294"
            },
            "orbiting_body": "Earth"
        }
    ],
    "orbital_data": {
        "orbit_id": "8",
        "orbit_determination_date": "2017-04-06 08:36:48",
        "first_observation_date": "2014-12-20",
        "last_observation_date": "2015-01-20",
        "data_arc_in_days": 31,
        "observations_used": 20,
        "orbit_uncertainty": "7",
        "minimum_orbit_intersection": ".0195782",
        "jupiter_tisserand_invariant": "3.953",
        "epoch_osculation": "2459000.5",
        "eccentricity": ".4703619634049803",
        "semi_major_axis": "1.77617461636707",
        "inclination": "6.788655652626635",
        "ascending_node_longitude": "90.14303048930574",
        "orbital_period": "864.6232619022712",
        "perihelion_distance": ".9407296364625674",
        "perihelion_argument": "318.041789476825",
        "aphelion_distance": "2.611619596271573",
        "perihelion_time": "2458708.129664987819",
        "mean_anomaly": "121.7331585236508",
        "mean_motion": ".4163663133558983",
        "equinox": "J2000",
        "orbit_class": {
            "orbit_class_type": "APO",
            "orbit_class_description": "Near-Earth asteroid orbits which cross the Earth’s orbit similar to that of 1862 Apollo",
            "orbit_class_range": "a (semi-major axis) > 1.0 AU; q (perihelion) < 1.017 AU"
        }
    },
    "is_sentry_object": false
}